GEOSCAN 3 (RS92S3)      
1 64893U 25155T   26162.71815654  .00017325  00000+0  50835-3 0  9993
2 64893  97.4529 132.5317 0005913 177.8799 182.2471 15.35215068 80016
INNOSAT 3 (RS92S0)      
1 64894U 25155U   26162.67295799  .00035031  00000+0  78227-3 0  9990
2 64894  97.4477 134.0381 0005561 164.6784 195.4633 15.43441906 80112
KNACKSAT-2              
1 67683U 98067XZ  26162.64826142  .00046499  00000+0  57743-3 0  9990
2 67683  51.6308 322.3291 0009864 190.9117 169.1664 15.59472587 19413
