OBJECT_NAME,OBJECT_ID,EPOCH,MEAN_MOTION,ECCENTRICITY,INCLINATION,RA_OF_ASC_NODE,ARG_OF_PERICENTER,MEAN_ANOMALY,EPHEMERIS_TYPE,CLASSIFICATION_TYPE,NORAD_CAT_ID,ELEMENT_SET_NO,REV_AT_EPOCH,BSTAR,MEAN_MOTION_DOT,MEAN_MOTION_DDOT
GEOSCAN 3 (RS92S3),2025-155T,2026-06-11T17:14:08.725056,15.35215068,.0005913,97.4529,132.5317,177.8799,182.2471,0,U,64893,999,8001,.50835E-3,.17325E-3,0
INNOSAT 3 (RS92S0),2025-155U,2026-06-11T16:09:03.570336,15.43441906,.0005561,97.4477,134.0381,164.6784,195.4633,0,U,64894,999,8011,.78227E-3,.35031E-3,0
KNACKSAT-2,1998-067XZ,2026-06-11T15:33:29.786688,15.59472587,.0009864,51.6308,322.3291,190.9117,169.1664,0,U,67683,999,1941,.57743E-3,.46499E-3,0
